CCSDS_OMM_VERS = 2.0
CREATION_DATE  = 
ORIGINATOR     = 

OBJECT_NAME    = SHIJIAN-16 (SJ-16)
OBJECT_ID      = 2013-057A
CENTER_NAME    = EARTH
REF_FRAME      = TEME
TIME_SYSTEM    = UTC
MEAN_ELEMENT_THEORY = SGP/SGP4

EPOCH          = 2025-11-21T16:19:58.669824
MEAN_MOTION    = 14.91896043
ECCENTRICITY   = .0016811
INCLINATION    = 74.9746
RA_OF_ASC_NODE = 29.4983
ARG_OF_PERICENTER = 10.1950
MEAN_ANOMALY   = 349.9576

EPHEMERIS_TYPE = 0
CLASSIFICATION_TYPE = U
NORAD_CAT_ID   = 39358
ELEMENT_SET_NO = 999
REV_AT_EPOCH   = 65539
BSTAR          = .20026E-3
MEAN_MOTION_DOT = .2001E-4
MEAN_MOTION_DDOT = 0

CCSDS_OMM_VERS = 2.0
CREATION_DATE  = 
ORIGINATOR     = 

OBJECT_NAME    = SL-4 R/B
OBJECT_ID      = 2014-021B
CENTER_NAME    = EARTH
REF_FRAME      = TEME
TIME_SYSTEM    = UTC
MEAN_ELEMENT_THEORY = SGP/SGP4

EPOCH          = 2025-11-21T11:23:31.327296
MEAN_MOTION    = 15.35913916
ECCENTRICITY   = .0103511
INCLINATION    = 51.6044
RA_OF_ASC_NODE = 143.8805
ARG_OF_PERICENTER = 69.7651
MEAN_ANOMALY   = 291.4425

EPHEMERIS_TYPE = 0
CLASSIFICATION_TYPE = U
NORAD_CAT_ID   = 39679
ELEMENT_SET_NO = 999
REV_AT_EPOCH   = 63962
BSTAR          = .33624E-3
MEAN_MOTION_DOT = .1385E-3
MEAN_MOTION_DDOT = 0

CCSDS_OMM_VERS = 2.0
CREATION_DATE  = 
ORIGINATOR     = 

OBJECT_NAME    = ALOS-2
OBJECT_ID      = 2014-029A
CENTER_NAME    = EARTH
REF_FRAME      = TEME
TIME_SYSTEM    = UTC
MEAN_ELEMENT_THEORY = SGP/SGP4

EPOCH          = 2025-11-21T15:23:53.223936
MEAN_MOTION    = 14.79475278
ECCENTRICITY   = .0001359
INCLINATION    = 97.9233
RA_OF_ASC_NODE = 60.7873
ARG_OF_PERICENTER = 96.2925
MEAN_ANOMALY   = 263.8442

EPHEMERIS_TYPE = 0
CLASSIFICATION_TYPE = U
NORAD_CAT_ID   = 39766
ELEMENT_SET_NO = 999
REV_AT_EPOCH   = 62089
BSTAR          = -.78978E-4
MEAN_MOTION_DOT = -.641E-5
MEAN_MOTION_DDOT = 0

CCSDS_OMM_VERS = 2.0
CREATION_DATE  = 
ORIGINATOR     = 

OBJECT_NAME    = YAOGAN-29
OBJECT_ID      = 2015-069A
CENTER_NAME    = EARTH
REF_FRAME      = TEME
TIME_SYSTEM    = UTC
MEAN_ELEMENT_THEORY = SGP/SGP4

EPOCH          = 2025-11-21T16:46:31.489248
MEAN_MOTION    = 14.82848940
ECCENTRICITY   = .0001621
INCLINATION    = 98.0239
RA_OF_ASC_NODE = 348.8011
ARG_OF_PERICENTER = 32.5846
MEAN_ANOMALY   = 327.5466

EPHEMERIS_TYPE = 0
CLASSIFICATION_TYPE = U
NORAD_CAT_ID   = 41038
ELEMENT_SET_NO = 999
REV_AT_EPOCH   = 53987
BSTAR          = .71255E-4
MEAN_MOTION_DOT = .523E-5
MEAN_MOTION_DDOT = 0

CCSDS_OMM_VERS = 2.0
CREATION_DATE  = 
ORIGINATOR     = 

OBJECT_NAME    = ASTRO-H (HITOMI)
OBJECT_ID      = 2016-012A
CENTER_NAME    = EARTH
REF_FRAME      = TEME
TIME_SYSTEM    = UTC
MEAN_ELEMENT_THEORY = SGP/SGP4

EPOCH          = 2025-11-21T06:17:32.250912
MEAN_MOTION    = 15.09162307
ECCENTRICITY   = .000977
INCLINATION    = 31.0013
RA_OF_ASC_NODE = 335.8101
ARG_OF_PERICENTER = 320.7682
MEAN_ANOMALY   = 39.2247

EPHEMERIS_TYPE = 0
CLASSIFICATION_TYPE = U
NORAD_CAT_ID   = 41337
ELEMENT_SET_NO = 999
REV_AT_EPOCH   = 53583
BSTAR          = .21219E-3
MEAN_MOTION_DOT = .3549E-4
MEAN_MOTION_DDOT = 0

CCSDS_OMM_VERS = 2.0
CREATION_DATE  = 
ORIGINATOR     = 

OBJECT_NAME    = HXMT (HUIYAN)
OBJECT_ID      = 2017-034A
CENTER_NAME    = EARTH
REF_FRAME      = TEME
TIME_SYSTEM    = UTC
MEAN_ELEMENT_THEORY = SGP/SGP4

EPOCH          = 2025-11-21T17:00:20.465280
MEAN_MOTION    = 15.15960241
ECCENTRICITY   = .0034151
INCLINATION    = 43.0149
RA_OF_ASC_NODE = 256.3117
ARG_OF_PERICENTER = 272.1627
MEAN_ANOMALY   = 87.5310

EPHEMERIS_TYPE = 0
CLASSIFICATION_TYPE = U
NORAD_CAT_ID   = 42758
ELEMENT_SET_NO = 999
REV_AT_EPOCH   = 46614
BSTAR          = .3913E-3
MEAN_MOTION_DOT = .7524E-4
MEAN_MOTION_DDOT = 0

CCSDS_OMM_VERS = 2.0
CREATION_DATE  = 
ORIGINATOR     = 

OBJECT_NAME    = CZ-2C R/B
OBJECT_ID      = 2018-054D
CENTER_NAME    = EARTH
REF_FRAME      = TEME
TIME_SYSTEM    = UTC
MEAN_ELEMENT_THEORY = SGP/SGP4

EPOCH          = 2025-11-21T01:45:05.200704
MEAN_MOTION    = 15.69281838
ECCENTRICITY   = .0022513
INCLINATION    = 35.1364
RA_OF_ASC_NODE = 327.2752
ARG_OF_PERICENTER = 287.1809
MEAN_ANOMALY   = 72.6458

EPHEMERIS_TYPE = 0
CLASSIFICATION_TYPE = U
NORAD_CAT_ID   = 43521
ELEMENT_SET_NO = 999
REV_AT_EPOCH   = 41164
BSTAR          = .63719E-3
MEAN_MOTION_DOT = .78922E-3
MEAN_MOTION_DDOT = 0

CCSDS_OMM_VERS = 2.0
CREATION_DATE  = 
ORIGINATOR     = 

OBJECT_NAME    = SAOCOM 1A
OBJECT_ID      = 2018-076A
CENTER_NAME    = EARTH
REF_FRAME      = TEME
TIME_SYSTEM    = UTC
MEAN_ELEMENT_THEORY = SGP/SGP4

EPOCH          = 2025-11-21T16:13:35.045184
MEAN_MOTION    = 14.82143582
ECCENTRICITY   = .0001572
INCLINATION    = 97.8852
RA_OF_ASC_NODE = 150.4043
ARG_OF_PERICENTER = 91.4483
MEAN_ANOMALY   = 268.6910

EPHEMERIS_TYPE = 0
CLASSIFICATION_TYPE = U
NORAD_CAT_ID   = 43641
ELEMENT_SET_NO = 999
REV_AT_EPOCH   = 38536
BSTAR          = .73429E-4
MEAN_MOTION_DOT = .532E-5
MEAN_MOTION_DDOT = 0

CCSDS_OMM_VERS = 2.0
CREATION_DATE  = 
ORIGINATOR     = 

OBJECT_NAME    = H-2A R/B
OBJECT_ID      = 2018-084L
CENTER_NAME    = EARTH
REF_FRAME      = TEME
TIME_SYSTEM    = UTC
MEAN_ELEMENT_THEORY = SGP/SGP4

EPOCH          = 2025-11-21T11:12:10.691424
MEAN_MOTION    = 15.36353375
ECCENTRICITY   = .0028871
INCLINATION    = 98.8785
RA_OF_ASC_NODE = 155.1550
ARG_OF_PERICENTER = 38.8508
MEAN_ANOMALY   = 321.4799

EPHEMERIS_TYPE = 0
CLASSIFICATION_TYPE = U
NORAD_CAT_ID   = 43682
ELEMENT_SET_NO = 999
REV_AT_EPOCH   = 38913
BSTAR          = .55049E-3
MEAN_MOTION_DOT = .19708E-3
MEAN_MOTION_DDOT = 0

CCSDS_OMM_VERS = 2.0
CREATION_DATE  = 
ORIGINATOR     = 

OBJECT_NAME    = SAOCOM 1B
OBJECT_ID      = 2020-059A
CENTER_NAME    = EARTH
REF_FRAME      = TEME
TIME_SYSTEM    = UTC
MEAN_ELEMENT_THEORY = SGP/SGP4

EPOCH          = 2025-11-21T15:21:24.882912
MEAN_MOTION    = 14.82152179
ECCENTRICITY   = .0001328
INCLINATION    = 97.8847
RA_OF_ASC_NODE = 149.4702
ARG_OF_PERICENTER = 89.8058
MEAN_ANOMALY   = 270.3307

EPHEMERIS_TYPE = 0
CLASSIFICATION_TYPE = U
NORAD_CAT_ID   = 46265
ELEMENT_SET_NO = 999
REV_AT_EPOCH   = 28274
BSTAR          = .75043E-4
MEAN_MOTION_DOT = .545E-5
MEAN_MOTION_DDOT = 0

CCSDS_OMM_VERS = 2.0
CREATION_DATE  = 
ORIGINATOR     = 

OBJECT_NAME    = CSS (TIANHE)
OBJECT_ID      = 2021-035A
CENTER_NAME    = EARTH
REF_FRAME      = TEME
TIME_SYSTEM    = UTC
MEAN_ELEMENT_THEORY = SGP/SGP4

EPOCH          = 2025-11-21T12:09:21.448800
MEAN_MOTION    = 15.59392583
ECCENTRICITY   = .0007663
INCLINATION    = 41.4651
RA_OF_ASC_NODE = 145.5210
ARG_OF_PERICENTER = 210.6262
MEAN_ANOMALY   = 149.4129

EPHEMERIS_TYPE = 0
CLASSIFICATION_TYPE = U
NORAD_CAT_ID   = 48274
ELEMENT_SET_NO = 999
REV_AT_EPOCH   = 26071
BSTAR          = .25839E-3
MEAN_MOTION_DOT = .20743E-3
MEAN_MOTION_DDOT = 0

CCSDS_OMM_VERS = 2.0
CREATION_DATE  = 
ORIGINATOR     = 

OBJECT_NAME    = COSMOS 2550
OBJECT_ID      = 2021-056A
CENTER_NAME    = EARTH
REF_FRAME      = TEME
TIME_SYSTEM    = UTC
MEAN_ELEMENT_THEORY = SGP/SGP4

EPOCH          = 2025-11-21T15:56:04.538688
MEAN_MOTION    = 15.33860875
ECCENTRICITY   = .000788
INCLINATION    = 67.1438
RA_OF_ASC_NODE = 7.6838
ARG_OF_PERICENTER = 266.7588
MEAN_ANOMALY   = 93.2665

EPHEMERIS_TYPE = 0
CLASSIFICATION_TYPE = U
NORAD_CAT_ID   = 48865
ELEMENT_SET_NO = 999
REV_AT_EPOCH   = 24689
BSTAR          = .64702E-5
MEAN_MOTION_DOT = .21E-6
MEAN_MOTION_DDOT = 0

