SHIJIAN-16 (SJ-16)      
1 39358U 13057A   25325.68054016  .00002001  00000+0  20026-3 0  9996
2 39358  74.9746  29.4983 0016811  10.1950 349.9576 14.91896043655391
SL-4 R/B                
1 39679U 14021B   25325.47466814  .00013850  00000+0  33624-3 0  9996
2 39679  51.6044 143.8805 0103511  69.7651 291.4425 15.35913916639626
ALOS-2                  
1 39766U 14029A   25325.64158824 -.00000641  00000+0 -78978-4 0  9997
2 39766  97.9233  60.7873 0001359  96.2925 263.8442 14.79475278620896
YAOGAN-29               
1 41038U 15069A   25325.69897557  .00000523  00000+0  71255-4 0  9993
2 41038  98.0239 348.8011 0001621  32.5846 327.5466 14.82848940539875
ASTRO-H (HITOMI)        
1 41337U 16012A   25325.26217883  .00003549  00000+0  21219-3 0  9990
2 41337  31.0013 335.8101 0009770 320.7682  39.2247 15.09162307535835
HXMT (HUIYAN)           
1 42758U 17034A   25325.70857020  .00007524  00000+0  39130-3 0  9993
2 42758  43.0149 256.3117 0034151 272.1627  87.5310 15.15960241466144
CZ-2C R/B               
1 43521U 18054D   25325.07297686  .00078922  00000+0  63719-3 0  9991
2 43521  35.1364 327.2752 0022513 287.1809  72.6458 15.69281838411644
SAOCOM 1A               
1 43641U 18076A   25325.67610006  .00000532  00000+0  73429-4 0  9991
2 43641  97.8852 150.4043 0001572  91.4483 268.6910 14.82143582385365
H-2A R/B                
1 43682U 18084L   25325.46679041  .00019708  00000+0  55049-3 0  9998
2 43682  98.8785 155.1550 0028871  38.8508 321.4799 15.36353375389130
SAOCOM 1B               
1 46265U 20059A   25325.63987133  .00000545  00000+0  75043-4 0  9992
2 46265  97.8847 149.4702 0001328  89.8058 270.3307 14.82152179282742
CSS (TIANHE)            
1 48274U 21035A   25325.50649825  .00020743  00000+0  25839-3 0  9997
2 48274  41.4651 145.5210 0007663 210.6262 149.4129 15.59392583260713
COSMOS 2550             
1 48865U 21056A   25325.66394142  .00000021  00000+0  64702-5 0  9993
2 48865  67.1438   7.6838 0007880 266.7588  93.2665 15.33860875246895
